start=new Date('2023-02-24T00:00:00.000Z').valueOf();
sats=[{"OBJECT_NAME":"STARLINK-2749","NORAD_CAT_ID":"48429","SEMIMAJOR_AXIS":"6925.306","MEAN_MOTION_DOT":"0.00024797","DECAY_DATE":null,"PERIOD":"95.591","CENTER_NAME":"EARTH","SITE":"AFETR","ELEMENT_SET_NO":"999","REV_AT_EPOCH":"9963","OBJECT_ID":"2021-040B","CLASSIFICATION_TYPE":"U","TLE_LINE2":"2 48429  53.0514 100.7133 0001430 107.5058 252.6088 15.06413887 99637","EPHEMERIS_TYPE":"0","ARG_OF_PERICENTER":"107.5058","ECCENTRICITY":"0.00014300","COUNTRY_CODE":"US","TIME_SYSTEM":"UTC","RCS_SIZE":"LARGE","APOAPSIS":"548.161","PERIAPSIS":"546.181","MEAN_ELEMENT_THEORY":"SGP4","MEAN_MOTION_DDOT":"0.0000000000000","MEAN_ANOMALY":"252.6088","TLE_LINE1":"1 48429U 21040B   23054.44384684  .00024797  00000-0  16771-2 0  9992","REF_FRAME":"TEME","INCLINATION":"53.0514","GP_ID":"226565981","EPOCH":"2023-02-23T10:39:08.366976","RA_OF_ASC_NODE":"100.7133","LAUNCH_DATE":"2021-05-09","OBJECT_TYPE":"PAYLOAD","BSTAR":"0.00167710000000","FILE":"3828819","MEAN_MOTION":"15.06413887"},{"OBJECT_NAME":"STARLINK-2729","NORAD_CAT_ID":"48430","SEMIMAJOR_AXIS":"6925.374","MEAN_MOTION_DOT":"0.00002447","DECAY_DATE":null,"PERIOD":"95.593","SITE":"AFETR","ELEMENT_SET_NO":"999","CENTER_NAME":"EARTH","TLE_LINE2":"2 48430  53.0525  99.0695 0001888  84.6394 275.4810 15.06391602100975","EPHEMERIS_TYPE":"0","CLASSIFICATION_TYPE":"U","OBJECT_ID":"2021-040C","REV_AT_EPOCH":"10097","ECCENTRICITY":"0.00018880","ARG_OF_PERICENTER":"84.6394","COUNTRY_CODE":"US","RCS_SIZE":"LARGE","APOAPSIS":"548.547","TIME_SYSTEM":"UTC","PERIAPSIS":"545.932","MEAN_ANOMALY":"275.4810","MEAN_ELEMENT_THEORY":"SGP4","MEAN_MOTION_DDOT":"0.0000000000000","EPOCH":"2023-02-23T19:23:15.480384","TLE_LINE1":"1 48430U 21040C   23054.80781806  .00002447  00000-0  18318-3 0  9999","REF_FRAME":"TEME","GP_ID":"226591935","INCLINATION":"53.0525","RA_OF_ASC_NODE":"99.0695","LAUNCH_DATE":"2021-05-09","FILE":"3829784","MEAN_MOTION":"15.06391602","BSTAR":"0.00018318000000","OBJECT_TYPE":"PAYLOAD"},{"PERIAPSIS":"546.119","MEAN_ANOMALY":"269.8746","MEAN_ELEMENT_THEORY":"SGP4","MEAN_MOTION_DDOT":"0.0000000000000","COUNTRY_CODE":"US","RCS_SIZE":"LARGE","APOAPSIS":"548.264","TIME_SYSTEM":"UTC","LAUNCH_DATE":"2021-05-09","FILE":"3829782","MEAN_MOTION":"15.06407156","OBJECT_TYPE":"PAYLOAD","BSTAR":"0.00072189000000","EPOCH":"2023-02-23T19:42:29.123424","TLE_LINE1":"1 48431U 21040D   23054.82117041  .00010489  00000-0  72189-3 0  9997","REF_FRAME":"TEME","INCLINATION":"53.0506","GP_ID":"226591906","RA_OF_ASC_NODE":"94.0150","MEAN_MOTION_DOT":"0.00010489","DECAY_DATE":null,"OBJECT_NAME":"STARLINK-2700","NORAD_CAT_ID":"48431","SEMIMAJOR_AXIS":"6925.327","TLE_LINE2":"2 48431  53.0506  94.0150 0001549  90.2420 269.8746 15.06407156100217","CLASSIFICATION_TYPE":"U","EPHEMERIS_TYPE":"0","REV_AT_EPOCH":"10021","OBJECT_ID":"2021-040D","ECCENTRICITY":"0.00015490","ARG_OF_PERICENTER":"90.2420","PERIOD":"95.592","SITE":"AFETR","ELEMENT_SET_NO":"999","CENTER_NAME":"EARTH"},{"OBJECT_NAME":"STARLINK-2680","NORAD_CAT_ID":"48432","SEMIMAJOR_AXIS":"6925.321","MEAN_MOTION_DOT":"0.00012247","DECAY_DATE":null,"PERIOD":"95.592","ELEMENT_SET_NO":"999","SITE":"AFETR","CENTER_NAME":"EARTH","TLE_LINE2":"2 48432  53.0520  89.4968 0001727  89.8200 270.2987 15.06408873100431","CLASSIFICATION_TYPE":"U","EPHEMERIS_TYPE":"0","REV_AT_EPOCH":"10043","OBJECT_ID":"2021-040E","ECCENTRICITY":"0.00017270","ARG_OF_PERICENTER":"89.8200","COUNTRY_CODE":"US","RCS_SIZE":"LARGE","APOAPSIS":"548.382","TIME_SYSTEM":"UTC","PERIAPSIS":"545.990","MEAN_ANOMALY":"270.2987","MEAN_ELEMENT_THEORY":"SGP4","MEAN_MOTION_DDOT":"0.0000000000000","EPOCH":"2023-02-23T19:15:21.622176","TLE_LINE1":"1 48432U 21040E   23054.80233359  .00012247  00000-0  83944-3 0  9992","REF_FRAME":"TEME","INCLINATION":"53.0520","GP_ID":"226591909","RA_OF_ASC_NODE":"89.4968","LAUNCH_DATE":"2021-05-09","MEAN_MOTION":"15.06408873","FILE":"3829782","OBJECT_TYPE":"PAYLOAD","BSTAR":"0.00083944000000"},{"OBJECT_NAME":"STARLINK-2699","NORAD_CAT_ID":"48433","SEMIMAJOR_AXIS":"6925.350","MEAN_MOTION_DOT":"0.00011386","DECAY_DATE":null,"PERIOD":"95.592","CENTER_NAME":"EARTH","ELEMENT_SET_NO":"999","SITE":"AFETR","REV_AT_EPOCH":"10036","OBJECT_ID":"2021-040F","EPHEMERIS_TYPE":"0","TLE_LINE2":"2 48433  53.0517  94.3248 0002247  88.7149 271.4098 15.06399404100369","CLASSIFICATION_TYPE":"U","ARG_OF_PERICENTER":"88.7149","ECCENTRICITY":"0.00022470","COUNTRY_CODE":"US","TIME_SYSTEM":"UTC","RCS_SIZE":"LARGE","APOAPSIS":"548.772","PERIAPSIS":"545.659","MEAN_ELEMENT_THEORY":"SGP4","MEAN_MOTION_DDOT":"0.0000000000000","MEAN_ANOMALY":"271.4098","TLE_LINE1":"1 48433U 21040F   23054.81477512  .00011386  00000-0  78208-3 0  9995","REF_FRAME":"TEME","INCLINATION":"53.0517","GP_ID":"226591916","EPOCH":"2023-02-23T19:33:16.570368","RA_OF_ASC_NODE":"94.3248","LAUNCH_DATE":"2021-05-09","BSTAR":"0.00078208000000","OBJECT_TYPE":"PAYLOAD","MEAN_MOTION":"15.06399404","FILE":"3829782"},{"PERIOD":"95.592","SITE":"AFETR","ELEMENT_SET_NO":"999","CENTER_NAME":"EARTH","CLASSIFICATION_TYPE":"U","TLE_LINE2":"2 48434  53.0504 101.4968 0000679  92.6682 267.4384 15.06406699 99622","EPHEMERIS_TYPE":"0","OBJECT_ID":"2021-040G","REV_AT_EPOCH":"9962","ECCENTRICITY":"0.00006790","ARG_OF_PERICENTER":"92.6682","NORAD_CAT_ID":"48434","OBJECT_NAME":"STARLINK-2692","SEMIMAJOR_AXIS":"6925.328","MEAN_MOTION_DOT":"0.00011872","DECAY_DATE":null,"EPOCH":"2023-02-23T09:09:00.648864","INCLINATION":"53.0504","GP_ID":"226566731","TLE_LINE1":"1 48434U 21040G   23054.38125751  .00011872  00000-0  81437-3 0  9991","REF_FRAME":"TEME","RA_OF_ASC_NODE":"101.4968","LAUNCH_DATE":"2021-05-09","FILE":"3828819","MEAN_MOTION":"15.06406699","BSTAR":"0.00081437000000","OBJECT_TYPE":"PAYLOAD","COUNTRY_CODE":"US","APOAPSIS":"547.663","RCS_SIZE":"LARGE","TIME_SYSTEM":"UTC","PERIAPSIS":"546.723","MEAN_ANOMALY":"267.4384","MEAN_MOTION_DDOT":"0.0000000000000","MEAN_ELEMENT_THEORY":"SGP4"},{"REV_AT_EPOCH":"10083","OBJECT_ID":"2021-040H","TLE_LINE2":"2 48435  53.0506 108.8826 0001511  95.3287 264.7875 15.06396897100835","EPHEMERIS_TYPE":"0","CLASSIFICATION_TYPE":"U","ARG_OF_PERICENTER":"95.3287","ECCENTRICITY":"0.00015110","PERIOD":"95.592","CENTER_NAME":"EARTH","SITE":"AFETR","ELEMENT_SET_NO":"999","MEAN_MOTION_DOT":"0.00016014","DECAY_DATE":null,"NORAD_CAT_ID":"48435","OBJECT_NAME":"STARLINK-2633","SEMIMAJOR_AXIS":"6925.358","LAUNCH_DATE":"2021-05-09","BSTAR":"0.00109160000000","OBJECT_TYPE":"PAYLOAD","MEAN_MOTION":"15.06396897","FILE":"3829783","GP_ID":"226591928","INCLINATION":"53.0506","TLE_LINE1":"1 48435U 21040H   23054.85207688  .00016014  00000-0  10916-2 0  9990","REF_FRAME":"TEME","EPOCH":"2023-02-23T20:26:59.442432","RA_OF_ASC_NODE":"108.8826","PERIAPSIS":"546.177","MEAN_MOTION_DDOT":"0.0000000000000","MEAN_ELEMENT_THEORY":"SGP4","MEAN_ANOMALY":"264.7875","COUNTRY_CODE":"US","TIME_SYSTEM":"UTC","APOAPSIS":"548.269","RCS_SIZE":"LARGE"},{"OBJECT_NAME":"STARLINK-2639","NORAD_CAT_ID":"48436","SEMIMAJOR_AXIS":"6925.372","MEAN_MOTION_DOT":"0.00021120","DECAY_DATE":null,"PERIOD":"95.593","CENTER_NAME":"EARTH","SITE":"AFETR","ELEMENT_SET_NO":"999","OBJECT_ID":"2021-040J","REV_AT_EPOCH":"9929","CLASSIFICATION_TYPE":"U","TLE_LINE2":"2 48436  53.0510 125.4108 0001413  98.1888 261.9261 15.06392314 99293","EPHEMERIS_TYPE":"0","ARG_OF_PERICENTER":"98.1888","ECCENTRICITY":"0.00014130","COUNTRY_CODE":"US","TIME_SYSTEM":"UTC","RCS_SIZE":"LARGE","APOAPSIS":"548.216","PERIAPSIS":"546.259","MEAN_ELEMENT_THEORY":"SGP4","MEAN_MOTION_DDOT":"0.0000000000000","MEAN_ANOMALY":"261.9261","REF_FRAME":"TEME","TLE_LINE1":"1 48436U 21040J   23054.50974072  .00021120  00000-0  14328-2 0  9996","INCLINATION":"53.0510","GP_ID":"226565732","EPOCH":"2023-02-23T12:14:01.598208","RA_OF_ASC_NODE":"125.4108","LAUNCH_DATE":"2021-05-09","BSTAR":"0.00143280000000","OBJECT_TYPE":"PAYLOAD","MEAN_MOTION":"15.06392314","FILE":"3828819"},{"TLE_LINE2":"2 48437  53.0516 135.4816 0001271  97.5071 262.6062 15.06404401 99159","CLASSIFICATION_TYPE":"U","EPHEMERIS_TYPE":"0","OBJECT_ID":"2021-040K","REV_AT_EPOCH":"9915","ECCENTRICITY":"0.00012710","ARG_OF_PERICENTER":"97.5071","PERIOD":"95.592","SITE":"AFETR","ELEMENT_SET_NO":"999","CENTER_NAME":"EARTH","MEAN_MOTION_DOT":"0.00025687","DECAY_DATE":null,"OBJECT_NAME":"STARLINK-2642","NORAD_CAT_ID":"48437","SEMIMAJOR_AXIS":"6925.335","LAUNCH_DATE":"2021-05-09","MEAN_MOTION":"15.06404401","FILE":"3828819","BSTAR":"0.00173690000000","OBJECT_TYPE":"PAYLOAD","EPOCH":"2023-02-23T11:51:27.737856","REF_FRAME":"TEME","TLE_LINE1":"1 48437U 21040K   23054.49407104  .00025687  00000-0  17369-2 0  9992","GP_ID":"226565982","INCLINATION":"53.0516","RA_OF_ASC_NODE":"135.4816","PERIAPSIS":"546.320","MEAN_ANOMALY":"262.6062","MEAN_ELEMENT_THEORY":"SGP4","MEAN_MOTION_DDOT":"0.0000000000000","COUNTRY_CODE":"US","RCS_SIZE":"LARGE","APOAPSIS":"548.080","TIME_SYSTEM":"UTC"},{"ECCENTRICITY":"0.00013420","ARG_OF_PERICENTER":"95.1793","CLASSIFICATION_TYPE":"U","TLE_LINE2":"2 48438  53.0528 123.6390 0001342  95.1793 264.9349 15.06400569100633","EPHEMERIS_TYPE":"0","REV_AT_EPOCH":"10063","OBJECT_ID":"2021-040L","ELEMENT_SET_NO":"999","SITE":"AFETR","CENTER_NAME":"EARTH","PERIOD":"95.592","DECAY_DATE":null,"MEAN_MOTION_DOT":"0.00014184","SEMIMAJOR_AXIS":"6925.347","NORAD_CAT_ID":"48438","OBJECT_NAME":"STARLINK-2640","MEAN_MOTION":"15.06400569","FILE":"3829783","BSTAR":"0.00096917000000","OBJECT_TYPE":"PAYLOAD","LAUNCH_DATE":"2021-05-09","RA_OF_ASC_NODE":"123.6390","EPOCH":"2023-02-23T21:41:58.248960","GP_ID":"226591926","INCLINATION":"53.0528","TLE_LINE1":"1 48438U 21040L   23054.90414640  .00014184  00000-0  96917-3 0  9999","REF_FRAME":"TEME","MEAN_ANOMALY":"264.9349","MEAN_MOTION_DDOT":"0.0000000000000","MEAN_ELEMENT_THEORY":"SGP4","PERIAPSIS":"546.282","RCS_SIZE":"LARGE","APOAPSIS":"548.141","TIME_SYSTEM":"UTC","COUNTRY_CODE":"US"}];
